#aV2021  4  2  0  0  0.00000000     288 DD+AD WGS84 FIT  NGA
## 2151 432000.00000000   300.00000000 59306 0.0000000000000
+   32     1  2  3  4  5  6  7  8  9 10 11 12 13 14 15 16 17
+         18 19 20 21 22 23 24 25 26 27 28 29 30 31 32  0  0
+          0  0  0  0  0  0  0  0  0  0  0  0  0  0  0  0  0
+          0  0  0  0  0  0  0  0  0  0  0  0  0  0  0  0  0
+          0  0  0  0  0  0  0  0  0  0  0  0  0  0  0  0  0
++         2  2  2  2  2  2  2  2  2  2  2  2  2  2  2  2  2
++         2  2  2  2  2  2  2  2  2  2  2  2  2  2  2  0  0
++         0  0  0  0  0  0  0  0  0  0  0  0  0  0  0  0  0
++         0  0  0  0  0  0  0  0  0  0  0  0  0  0  0  0  0
++         0  0  0  0  0  0  0  0  0  0  0  0  0  0  0  0  0
%c cc cc ccc ccc cccc cccc cccc cccc ccccc ccccc ccccc ccccc
%c cc cc ccc ccc cccc cccc cccc cccc ccccc ccccc ccccc ccccc
%f  0.0000000  0.000000000  0.00000000000  0.000000000000000
%f  0.0000000  0.000000000  0.00000000000  0.000000000000000
%i    0    0    0    0      0      0      0      0         0
%i    0    0    0    0      0      0      0      0         0
/*      NGA, ST. LOUIS,MO.                                  
/*   EPHEMERIS COMPUTED FROM 2 DAYS OF DATA                 
/*   EPOCHA v5 SMOOTHER                                     
/*   G2139 IERS2010 SATIGS SATAPC                           
*  2021  4  2 14 15  0.00000000
P  1 -12001.840613 -13447.800581 -19876.653309    726.456260                    
V  1  24532.219255   -244.302032 -14498.403536     -0.094551                    
P  2 -13372.781901  14005.964429  18853.475343   -591.973838                    
V  2 -22612.275331    182.527499 -16726.285124     -0.035275                    
P  3 -12876.319664 -23297.234687   -342.798420   -125.495562                    
V  3   2332.352880   -927.578927 -31846.819819     -0.108064                    
P  4  -3605.491424 -18579.928384  18619.076475   -189.688845                    
V  4  13956.879533 -19149.361690 -16464.824326     -0.020648                    
P  5    634.244974  21586.811646  15190.887744    -37.944325                    
V  5 -12218.845263 -15549.773200  22566.452076     -0.010627                    
P  6 -23795.834427   6430.050379  10035.180060      4.452458                    
V  6 -12581.243764  -1944.602353 -28708.373023      0.024908                    
P  7 -23621.474993  -7780.624670  10331.605173    109.631725                    
V  7  12514.353750  -2042.311664  27521.746487      0.118952                    
P  8   2736.654170 -22874.884412 -12944.969280    -16.028055                    
V  8  10168.643000 -13244.322695  25856.641192     -0.013961                    
P  9 -12484.622119  -9030.823336  21573.353662   -335.930103                    
V  9  13790.680728 -23866.004890  -2027.703228     -0.028571                    
P 10  16995.910602   1653.313578 -20297.394376    -93.756093                    
V 10  12077.154054  22969.943517  11656.691338     -0.078168                    
P 11  -6479.017446 -15122.710494 -21313.185612     18.384938                    
V 11  23307.509238 -12014.539711   1096.214421      0.106573                    
P 12   9083.141393  24827.180173  -3568.145581    -22.419491                    
V 12  -3800.603687  -2836.958698 -31522.520877     -0.050629                    
P 13 -12234.629545  22671.567787  -6311.620425    115.096249                    
V 13  -6859.611991   4616.045054  30646.542642      0.045193                    
P 14 -17272.176319  -2989.473432 -19972.174846     98.405071                    
V 14 -10432.191336 -23120.473833  12471.270791     -0.017157                    
P 15    541.909024  23058.456413 -13210.982582   -158.928133                    
V 15  -9562.707798  13717.755821  24566.648204      0.026092                    
P 16   4000.918252 -19459.529015  17148.250579   -303.472361                    
V 16  10873.801075  19672.159822  19959.831890     -0.058565                    
P 17 -18817.404562   8467.317717 -16294.374467    419.895083                    
V 17  10713.340808 -18653.146792 -21505.652222      0.063487                    
P 18  25180.828407   5369.542564   6643.398143    351.469057                    
V 18  -8496.770255   2170.891225  30360.671638      0.003292                    
P 19 -19587.850937  14739.592242 -10376.842593    -18.234544                    
V 19   6061.402559 -11396.155728 -28506.517730      0.050178                    
P 20  19241.709388  17431.402371  -6219.060618    523.584832                    
V 20   2270.844390   8155.494462  29714.555824     -0.003763                    
P 21  -3872.227962 -14668.024773 -21114.821813    107.942505                    
V 21  28440.755828  -1970.613701  -3271.157525      0.029196                    
P 22  -8154.379357 -23548.328542  -9244.727363   -647.015328                    
V 22   9518.913026   7989.663680 -27963.977247      0.085008                    
P 23  18842.768094  12376.172215 -14097.622791    115.444736                    
V 23   7407.020052  16366.808517  24258.328868     -0.016268                    
P 24   6572.088026  15179.302269 -21083.717514      0.289718                    
V 24 -26167.398517   2096.535779  -6331.172844     -0.005405                    
P 25  17207.225283  18488.602232   8392.784721    110.845724                    
V 25   3280.993631  10717.405663 -29142.875592      0.073626                    
P 26  10708.709242 -11859.997307  21129.567761     66.651990                    
V 26  14891.234914  22609.826266   5394.879514      0.052501                    
P 27  11956.979443 -23387.298785  -2346.640906   -105.424548                    
V 27   3675.056871  -1083.513696  32161.137629     -0.069579                    
P 28 -15856.753443   -958.222546 -20695.167910    592.888117                    
V 28 -10458.067865 -25531.781654   9143.014474     -0.057415                    
P 29  11731.728840   8826.928100  22086.677321   -322.909018                    
V 29 -16044.249961  23054.286701   -729.681024     -0.067336                    
P 30 -26563.225688    798.020982  -2385.866535   -407.232588                    
V 30  -2959.826099  -3451.301207  30883.825213     -0.053513                    
P 31  22555.382595  -7745.748755  12086.046468   -109.232812                    
V 31  15228.777987   2676.725066 -26067.583770     -0.022208                    
P 32  18689.922549 -10599.399888 -15396.019780     21.945937                    
V 32  -8050.975361  18241.418616 -22346.758841      0.002823                    
EOF
